[
    {
        "Altitude(m)": 607886.7397866594,
        "Argument of Periapsis(deg)": 0.0,
        "Eccentricity": 0.0,
        "Inclination(deg)": 60.0,
        "Latitude(deg)": 40.99857458489004,
        "Longitude(deg)": 74.97291258432104,
        "Mean Anomaly(deg)": 49.09089999999999,
        "RAAN(deg)": 145.0,
        "Satellite Name": "Test1 641",
        "Satellite Number": 641,
        "Semi-Major Axis(m)": 6980739.136638005,
        "Time(s)": 0
    },
    {
        "Altitude(m)": 607987.6541843897,
        "Argument of Periapsis(deg)": 0.00010418945913296404,
        "Eccentricity": 0.0,
        "Inclination(deg)": 60.0,
        "Latitude(deg)": 41.46366532570395,
        "Longitude(deg)": 75.47714036399901,
        "Mean Anomaly(deg)": 49.71100614546182,
        "RAAN(deg)": 144.99957995086027,
        "Satellite Name": "Test1 641",
        "Satellite Number": 641,
        "Semi-Major Axis(m)": 6980739.136638005,
        "Time(s)": 10
    }
]